EUTELSAT QUANTUM        
1 49056U 21069B   25364.61845971  .00000145  00000+0  00000+0 0  9991
2 49056   0.0102   4.2765 0003883 280.8215  84.5515  1.00272051 16239
EUTELSAT KONNECT VHTS   
1 53765U 22110A   25364.60953299  .00000035  00000+0  00000+0 0  9991
2 53765   0.0578  97.8827 0002672 158.2420  65.2953  1.00268460  5145
EUTELSAT HOTBIRD 13F    
1 54048U 22134A   25364.04089750  .00000108  00000+0  00000+0 0  9993
2 54048   0.0567 289.4061 0002213  60.5266 136.5066  1.00274103 11685
EUTELSAT HOTBIRD 13G    
1 54225U 22146A   25364.04089750  .00000108  00000+0  00000+0 0  9993
2 54225   0.0556 227.8096 0001920 320.8946 297.7399  1.00272665  5778
EUTELSAT 10B            
1 54259U 22157A   25364.61091966  .00000086  00000+0  00000+0 0  9992
2 54259   0.0592  95.1845 0000827  94.6375 139.4065  1.00267819 11336
EUTELSAT 36D            
1 59346U 24059A   25364.54479257  .00000000  00000+0  00000+0 0  9998
2 59346   0.0269  29.4763 0000587 281.8482  19.9125  1.00270581  6456
